COSMOS 2404 (701)       
1 28112U 03056A   08237.86657993 -.00000002  00000-0  10000-3 0  3723
2 28112  64.1568 293.1637 0042929 103.3234 308.1751  2.13104466 36639
COSMOS 2403 (795)       
1 28114U 03056C   08236.72582703 -.00000005  00000-0  10000-3 0  3188
2 28114  64.1722 293.2271 0036495  83.1272 269.5298  2.13104577 36602
COSMOS 2411 (796)       
1 28508U 04053A   08237.69250376  .00000000  00000-0  10000-3 0   291
2 28508  64.0481 292.0409 0011864 165.2047 340.2081  2.13103784 28499
COSMOS 2413 (712)       
1 28509U 04053B   08237.87274793  .00000001  00000-0  10000-3 0   315
2 28509  64.0428 292.0071 0007349 169.2896 201.0160  2.13102888 28503
COSMOS 2412 (797)       
1 28510U 04053C   08237.90515116  .00000001  00000-0  10000-3 0   408
2 28510  64.0555 292.0551 0004807 189.9986 160.2302  2.13102976 28494
COSMOS 2419 (714)       
1 28915U 05050A   08237.87123686  .00000013  00000-0  10000-3 0  7611
2 28915  64.8652 173.5761 0009338 326.3155  71.0348  2.13102047 20753
COSMOS 2418 (713)       
1 28916U 05050B   08237.93196144  .00000012  00000-0  10000-3 0  7505
2 28916  64.8835 173.6007 0020575 332.3628  63.6881  2.13103522 20757
COSMOS 2425 (716)       
1 29670U 06062A   08236.88556203  .00000010  00000-0  10000-3 0  4804
2 29670  65.1961  53.0517 0023347 356.6582 352.2056  2.13103393 12921
COSMOS 2426 (717)       
1 29671U 06062B   08237.17469870  .00000011  00000-0  10000-3 0  4879
2 29671  65.2121  53.0647 0019871 164.0443 272.4009  2.13103830 12948
COSMOS 2424 (715)       
1 29672U 06062C   08237.96470573  .00000012  00000-0  10000-3 0  5017
2 29672  65.1980  53.0176 0017462 162.3169 340.3354  2.13103810 12955
COSMOS 2433 (720)       
1 32275U 07052A   08236.82641653  .00000029  00000-0  00000+0 0  2248
2 32275  64.8772 173.3462 0004504 270.3443 226.6880  2.13102452  6443
COSMOS 2432 (719)       
1 32276U 07052B   08237.82325860  .00000013  00000-0  00000+0 0  2141
2 32276  64.8903 173.3317 0015987 333.8752 162.7309  2.13102268  6467
COSMOS 2431 (718)       
1 32277U 07052C   08237.19425635  .00000023  00000-0  00000+0 0  2199
2 32277  64.8934 173.3453 0018660 196.3934 312.8600  2.13102402  6538
COSMOS 2434 (721)       
1 32393U 07065A   08235.84544850  .00000007  00000-0  00000-0 0  1397
2 32393  64.8120  53.7561 0006525 117.6796 242.4270  2.13103319  5138
COSMOS 2435 (722)       
1 32394U 07065B   08237.48742595  .00000011  00000-0  00000+0 0  1435
2 32394  64.8154  53.7034 0004550  89.8881 270.2057  2.13103480  5100
COSMOS 2436 (723)       
1 32395U 07065C   08236.19668106  .00000007  00000-0  10000-3 0  1540
2 32395  64.8256  53.7430 0018018   2.6992 357.3509  2.13103637  5073
